0 CZ-3A R/B
1 38050U 12002B   13283.19009487  .00000433  00000-0  40568-3 0  3154
2 38050 024.2042 242.2459 7253197 223.1621 346.1137 02.27700651 14438
0 CZ-3A R/B
1 38050U 12002B   13285.72887977  .00000427  00000-0  37912-3 0  3166
2 38050 024.1943 241.2882 7253320 224.7981 267.2180 02.27702449 14494
0 CZ-3A R/B
1 38050U 12002B   13289.34741597  .00000411  00000-0  38926-3 0  3175
2 38050 024.1826 239.9259 7253584 227.1260 353.4596 02.27706120 14573
0 CZ-3A R/B
1 38050U 12002B   13293.29980162  .00000441  00000-0  47279-3 0  3182
2 38050 024.1705 238.4368 7253820 229.6696 353.4269 02.27709862 14660
0 CZ-3A R/B
1 38050U 12002B   13295.37939249  .00000414  00000-0  43460-3 0  3192
2 38050 024.1639 237.6528 7253963 231.0088 258.1858 02.27712007 14711
